{
  "61968": {
    "noradId": "61968",
    "tle": [
      "1 61968C 24210K   25265.08868056  .00014379  00000+0  52096-3 0  2654",
      "2 61968  43.0032  44.8223 0001827 281.9290 220.1903 15.27553504    11"
    ]
  },
  "61969": {
    "noradId": "61969",
    "tle": [
      "1 61969C 24210L   25265.09145833  .00007138  00000+0  25852-3 0  2652",
      "2 61969  43.0024  44.8536 0001678 259.9252 236.2696 15.27572299    16"
    ]
  },
  "61970": {
    "noradId": "61970",
    "tle": [
      "1 61970C 24210M   25265.08520833  .00003170  00000+0  11472-3 0  2655",
      "2 61970  43.0010  52.3384 0001204 265.4638 335.1962 15.27599565    13"
    ]
  },
  "61971": {
    "noradId": "61971",
    "tle": [
      "1 61971C 24210N   25265.08868056  .00009215  00000+0  33370-3 0  2655",
      "2 61971  43.0010  52.2159 0001423 265.4150  36.8704 15.27574775    10"
    ]
  },
  "61972": {
    "noradId": "61972",
    "tle": [
      "1 61972C 24210P   25265.08868056  .00044092  00000+0  15982-2 0  2656",
      "2 61972  43.0008  52.2674 0001622 263.6593  17.3538 15.27509186    15"
    ]
  },
  "61973": {
    "noradId": "61973",
    "tle": [
      "1 61973C 24210Q   25265.08520833  .00016128  00000+0  58412-3 0  2650",
      "2 61973  43.0037  51.6607 0001520 258.4810 265.2453 15.27563525    15"
    ]
  },
  "61974": {
    "noradId": "61974",
    "tle": [
      "1 61974C 24210R   25265.08590278  .00014823  00000+0  53687-3 0  2650",
      "2 61974  43.0022  52.4179 0001517 261.3877 307.8012 15.27563832    10"
    ]
  },
  "61975": {
    "noradId": "61975",
    "tle": [
      "1 61975C 24210S   25265.08729167  .00009731  00000+0  35235-3 0  2653",
      "2 61975  43.0026  52.0338 0001508 271.8217 100.6306 15.27580322    10"
    ]
  },
  "61976": {
    "noradId": "61976",
    "tle": [
      "1 61976C 24210T   25265.08937500  .00015227  00000+0  55167-3 0  2659",
      "2 61976  43.0031  51.9719 0001704 279.8341 125.3253 15.27554677    11"
    ]
  },
  "61977": {
    "noradId": "61977",
    "tle": [
      "1 61977C 24210U   25265.09076389  .00011726  00000+0  42470-3 0  2653",
      "2 61977  43.0007  52.1512 0001718 267.9533  67.0063 15.27568429    16"
    ]
  },
  "61978": {
    "noradId": "61978",
    "tle": [
      "1 61978C 24210V   25265.08451389  .00013296  00000+0  48134-3 0  2657",
      "2 61978  43.0010  52.1332 0001494 276.3091  45.4621 15.27581634    18"
    ]
  },
  "61979": {
    "noradId": "61979",
    "tle": [
      "1 61979C 24210W   25265.08868056  .00013880  00000+0  50272-3 0  2656",
      "2 61979  43.0043  51.7915 0000584  55.6893  63.4445 15.27567667    18"
    ]
  },
  "61980": {
    "noradId": "61980",
    "tle": [
      "1 61980C 24210X   25265.09076389  .00006891  00000+0  24945-3 0  2651",
      "2 61980  43.0013  52.3564 0001375 268.9829 341.0169 15.27590659    16"
    ]
  },
  "61981": {
    "noradId": "61981",
    "tle": [
      "1 61981C 24210Y   25265.08937500  .00014893  00000+0  53957-3 0  2658",
      "2 61981  43.0036  51.9209 0001809 282.0614 144.3271 15.27553189    19"
    ]
  },
  "61982": {
    "noradId": "61982",
    "tle": [
      "1 61982C 24210Z   25265.07131944  .00013161  00000+0  47624-3 0  2657",
      "2 61982  43.0041  51.8390 0001374 267.4991 137.1799 15.27595333    10"
    ]
  },
  "62008": {
    "noradId": "62008",
    "tle": [
      "1 62008C 24213A   25265.10951389  .00009975  00000+0  82183-4 0  2655",
      "2 62008  53.1566 152.1326 0000941  98.6585 132.0889 15.69695656    19"
    ]
  },
  "62009": {
    "noradId": "62009",
    "tle": [
      "1 62009C 24213B   25265.10881944  .00006423  00000+0  52931-4 0  2658",
      "2 62009  53.1568 152.5937 0000966  94.3213 270.6201 15.69692606    11"
    ]
  },
  "62010": {
    "noradId": "62010",
    "tle": [
      "1 62010C 24213C   25265.11506944  .00007070  00000+0  58259-4 0  2653",
      "2 62010  53.1574 152.3318 0001037  91.1650  60.0641 15.69692106    15"
    ]
  },
  "62011": {
    "noradId": "62011",
    "tle": [
      "1 62011C 24213D   25265.10812500  .00009852  00000+0  81193-4 0  2654",
      "2 62011  53.1571 152.5386 0000926  93.1610 295.5967 15.69687629    14"
    ]
  },
  "62012": {
    "noradId": "62012",
    "tle": [
      "1 62012C 24213E   25265.11437500  .00008919  00000+0  73499-4 0  2652",
      "2 62012  53.1567 152.2239 0000962  97.4192 105.3601 15.69689534    16"
    ]
  },
  "62013": {
    "noradId": "62013",
    "tle": [
      "1 62013C 24213F   25265.10951389  .00005686  00000+0  46859-4 0  2656",
      "2 62013  53.1565 152.1958 0000906  86.1119 116.9125 15.69692876    16"
    ]
  },
  "62014": {
    "noradId": "62014",
    "tle": [
      "1 62014C 24213G   25265.11993056  .00011905  00000+0  98122-4 0  2656",
      "2 62014  53.1574 152.4246 0000999  91.3531  31.8971 15.69684742    15"
    ]
  },
  "62015": {
    "noradId": "62015",
    "tle": [
      "1 62015C 24213H   25265.11229167  .00004209  00000+0  34687-4 0  2657",
      "2 62015  53.1569 152.0617 0001021  84.1811 190.0260 15.69695402    10"
    ]
  },
  "62016": {
    "noradId": "62016",
    "tle": [
      "1 62016C 24213J   25265.11298611  .00005881  00000+0  48464-4 0  2653",
      "2 62016  53.1571 152.0038 0001004  87.4308 218.4381 15.69694171    10"
    ]
  },
  "62017": {
    "noradId": "62017",
    "tle": [
      "1 62017C 24213K   25265.10951389  .00012520  00000+0  10318-3 0  2655",
      "2 62017  53.1575 152.4198 0000952  77.1748  14.9064 15.69686544    13"
    ]
  },
  "62018": {
    "noradId": "62018",
    "tle": [
      "1 62018C 24213L   25265.11437500  .00006665  00000+0  54924-4 0  2656",
      "2 62018  53.1571 152.2828 0001033  96.4045  78.6340 15.69692528    16"
    ]
  },
  "62019": {
    "noradId": "62019",
    "tle": [
      "1 62019C 24213M   25265.10812500  .00003081  00000+0  25389-4 0  2655",
      "2 62019  53.1570 152.6498 0001080  87.9460 245.3372 15.69695031    11"
    ]
  },
  "62020": {
    "noradId": "62020",
    "tle": [
      "1 62020C 24213N   25265.11159722  .00005267  00000+0  43405-4 0  2655",
      "2 62020  53.1570 151.9532 0000990  90.6722 235.0813 15.69694570    18"
    ]
  },
  "62021": {
    "noradId": "62021",
    "tle": [
      "1 62021C 24213P   25265.08590278 -.00022397  00000+0 -75487-3 0  2656",
      "2 62021  53.1572 231.5898 0001443  88.8455   7.9964 15.30212625    15"
    ]
  },
  "62022": {
    "noradId": "62022",
    "tle": [
      "1 62022C 24213Q   25265.08590278 -.00006064  00000+0 -20445-3 0  2654",
      "2 62022  53.1592 218.7589 0001203  90.5075 299.7548 15.30189137    14"
    ]
  },
  "62023": {
    "noradId": "62023",
    "tle": [
      "1 62023C 24213R   25265.09145833 -.00009564  00000+0 -32237-3 0  2659",
      "2 62023  53.1568 230.9553 0001322  84.4083 351.3451 15.30196946    12"
    ]
  },
  "62024": {
    "noradId": "62024",
    "tle": [
      "1 62024C 24213S   25265.08798611 -.00012144  00000+0 -40940-3 0  2655",
      "2 62024  53.1584 231.1592 0001292  94.3963 229.1376 15.30195677    18"
    ]
  },
  "62025": {
    "noradId": "62025",
    "tle": [
      "1 62025C 24213T   25265.08937500 -.00018191  00000+0 -61314-3 0  2654",
      "2 62025  53.1580 231.5061 0001215  83.0342  67.8417 15.30207042    14"
    ]
  },
  "62026": {
    "noradId": "62026",
    "tle": [
      "1 62026C 24213U   25265.09006944  .00001695  00000+0  57143-4 0  2650",
      "2 62026  53.1591 231.2149 0001363  91.4482 208.6737 15.30185004    16"
    ]
  },
  "62027": {
    "noradId": "62027",
    "tle": [
      "1 62027C 24213V   25265.08590278 -.00008379  00000+0 -28242-3 0  2653",
      "2 62027  53.1574 231.0623 0001388  90.1576 274.2479 15.30198394    18"
    ]
  },
  "62032": {
    "noradId": "62032",
    "tle": [
      "1 62032C 24216A   25265.08868056  .00030912  00000+0  11194-2 0  2657",
      "2 62032  43.0021 128.1017 0001828 270.2353 134.2886 15.27553673    13"
    ]
  },
  "62033": {
    "noradId": "62033",
    "tle": [
      "1 62033C 24216B   25265.08451389  .00028186  00000+0  10210-2 0  2653",
      "2 62033  43.0004 135.5225 0001642 277.0189 264.7447 15.27545729    19"
    ]
  },
  "62034": {
    "noradId": "62034",
    "tle": [
      "1 62034C 24216C   25265.08868056  .00026897  00000+0  97451-3 0  2657",
      "2 62034  42.9999 128.6065 0001749 276.6219 275.7003 15.27540789    14"
    ]
  },
  "62035": {
    "noradId": "62035",
    "tle": [
      "1 62035C 24216D   25265.08590278  .00034514  00000+0  12503-2 0  2655",
      "2 62035  43.0005 135.8516 0001413 269.1769 138.7481 15.27538110    14"
    ]
  },
  "62036": {
    "noradId": "62036",
    "tle": [
      "1 62036C 24216E   25265.09076389  .00032141  00000+0  11641-2 0  2655",
      "2 62036  42.9997 128.6446 0001526 269.4944 273.0534 15.27547272    19"
    ]
  },
  "62037": {
    "noradId": "62037",
    "tle": [
      "1 62037C 24216F   25265.08659722  .00035762  00000+0  12954-2 0  2653",
      "2 62037  42.9989 135.6953 0001491 269.0037 206.4097 15.27541397    18"
    ]
  },
  "62038": {
    "noradId": "62038",
    "tle": [
      "1 62038C 24216G   25265.08798611  .00031730  00000+0  11492-2 0  2652",
      "2 62038  43.0003 124.9050 0002004 270.3383  21.5788 15.27548007    15"
    ]
  },
  "62039": {
    "noradId": "62039",
    "tle": [
      "1 62039C 24216H   25265.08520833  .00028160  00000+0  10201-2 0  2652",
      "2 62039  43.0000 128.7109 0001686 267.5024 230.3154 15.27544423    10"
    ]
  },
  "62040": {
    "noradId": "62040",
    "tle": [
      "1 62040C 24216J   25265.08729167  .00032705  00000+0  11847-2 0  2652",
      "2 62040  43.0025 136.0310 0001435 268.3254  69.4311 15.27541260    13"
    ]
  },
  "62041": {
    "noradId": "62041",
    "tle": [
      "1 62041C 24216K   25265.09076389  .00031651  00000+0  11464-2 0  2659",
      "2 62041  43.0008 128.7320 0001616 265.4204 241.7604 15.27546739    14"
    ]
  }
}